{"type": "FeatureCollection", "features": [ {"type": "Feature", "properties": {"norad_id": 64901, "name": "CO3D 4", "group": "resource", "lat": 8.572336405970379, "lon": 58.90404326983951, "alt_km": 507.7564330083105, "timestamp": "2025-12-09T14:52:25.823998+00:00", "meta": {"OBJECT_NAME": "CO3D 4", "OBJECT_ID": "2025-156C", "EPOCH": "2025-12-09T06:56:14.049600", "MEAN_MOTION": 15.20210359, "ECCENTRICITY": 0.00010785, "INCLINATION": 97.4339, "RA_OF_ASC_NODE": 59.7059, "ARG_OF_PERICENTER": 216.2334, "MEAN_ANOMALY": 143.8828, "EPHEMERIS_TYPE": 0, "CLASSIFICATION_TYPE": "U", "NORAD_CAT_ID": 64901, "ELEMENT_SET_NO": 999, "REV_AT_EPOCH": 2068, "BSTAR": 0.00043184396, "MEAN_MOTION_DOT": 9.295e-05, "MEAN_MOTION_DDOT": 0}, "tle": {"line1": "1 64901U 25156C   25343.28905150  .00009295  00000+0  43184-3 0  9993", "line2": "2 64901  97.4339  59.7059 0001078 216.2334 143.8828 15.20210359 20687"}}, "geometry": {"type": "Point", "coordinates": [58.90404326983951, 8.572336405970379]}}, {"type": "Feature", "properties": {"norad_id": 64902, "name": "CO3D 2", "group": "resource", "lat": -11.154740972813727, "lon": -121.5450672903334, "alt_km": 509.82632377144, "timestamp": "2025-12-09T14:52:25.824008+00:00", "meta": {"OBJECT_NAME": "CO3D 2", "OBJECT_ID": "2025-156D", "EPOCH": "2025-12-09T06:08:13.179840", "MEAN_MOTION": 15.20191585, "ECCENTRICITY": 9.503e-05, "INCLINATION": 97.4341, "RA_OF_ASC_NODE": 59.5715, "ARG_OF_PERICENTER": 88.4845, "MEAN_ANOMALY": 271.6499, "EPHEMERIS_TYPE": 0, "CLASSIFICATION_TYPE": "U", "NORAD_CAT_ID": 64902, "ELEMENT_SET_NO": 999, "REV_AT_EPOCH": 2067, "BSTAR": 0.00022940208, "MEAN_MOTION_DOT": 4.9e-05, "MEAN_MOTION_DDOT": 0}, "tle": {"line1": "1 64902U 25156D   25343.25570810  .00004900  00000+0  22940-3 0  9997", "line2": "2 64902  97.4341  59.5715 0000950  88.4845 271.6499 15.20191585 20674"}}, "geometry": {"type": "Point", "coordinates": [-121.5450672903334, -11.154740972813727]}}, {"type": "Feature", "properties": {"norad_id": 64903, "name": "CO3D 1", "group": "resource", "lat": -10.32855757728442, "lon": -121.43320313904107, "alt_km": 509.5579795183776, "timestamp": "2025-12-09T14:52:25.824019+00:00", "meta": {"OBJECT_NAME": "CO3D 1", "OBJECT_ID": "2025-156E", "EPOCH": "2025-12-09T06:08:26.634912", "MEAN_MOTION": 15.20203755, "ECCENTRICITY": 9.668e-05, "INCLINATION": 97.434, "RA_OF_ASC_NODE": 59.5717, "ARG_OF_PERICENTER": 99.6207, "MEAN_ANOMALY": 260.5137, "EPHEMERIS_TYPE": 0, "CLASSIFICATION_TYPE": "U", "NORAD_CAT_ID": 64903, "ELEMENT_SET_NO": 999, "REV_AT_EPOCH": 2067, "BSTAR": 0.00039350964, "MEAN_MOTION_DOT": 8.461e-05, "MEAN_MOTION_DDOT": 0}, "tle": {"line1": "1 64903U 25156E   25343.25586383  .00008461  00000+0  39351-3 0  9990", "line2": "2 64903  97.4340  59.5717 0000966  99.6207 260.5137 15.20203755 20678"}}, "geometry": {"type": "Point", "coordinates": [-121.43320313904107, -10.32855757728442]}}, {"type": "Feature", "properties": {"norad_id": 66514, "name": "SENTINEL-6B", "group": "resource", "lat": 62.078368029459114, "lon": -68.12021118819503, "alt_km": 1333.8916246166964, "timestamp": "2025-12-09T14:52:25.824029+00:00", "meta": {"OBJECT_NAME": "SENTINEL-6B", "OBJECT_ID": "2025-264A", "EPOCH": "2025-12-08T23:22:28.384896", "MEAN_MOTION": 12.84031992, "ECCENTRICITY": 0.00210406, "INCLINATION": 66.0385, "RA_OF_ASC_NODE": 170.2707, "ARG_OF_PERICENTER": 268.23, "MEAN_ANOMALY": 91.6307, "EPHEMERIS_TYPE": 0, "CLASSIFICATION_TYPE": "U", "NORAD_CAT_ID": 66514, "ELEMENT_SET_NO": 999, "REV_AT_EPOCH": 280, "BSTAR": 0.000106025, "MEAN_MOTION_DOT": -3.6e-07, "MEAN_MOTION_DDOT": 0}, "tle": {"line1": "1 66514U 25264A   25342.97393964 -.00000036  00000+0  10602-3 0  9998", "line2": "2 66514  66.0385 170.2707 0021040 268.2300  91.6307 12.84031992  2809"}}, "geometry": {"type": "Point", "coordinates": [-68.12021118819503, 62.078368029459114]}}]}